[{"OBJECT_NAME":"PROTOMETHEE","OBJECT_ID":"2023-174BT","EPOCH":"2026-03-09T23:28:08.029344","MEAN_MOTION":15.30202663,"ECCENTRICITY":0.00088339,"INCLINATION":97.3826,"RA_OF_ASC_NODE":147.9552,"ARG_OF_PERICENTER":148.5993,"MEAN_ANOMALY":211.5776,"EPHEMERIS_TYPE":0,"CLASSIFICATION_TYPE":"U","NORAD_CAT_ID":58321,"ELEMENT_SET_NO":999,"REV_AT_EPOCH":12979,"BSTAR":0.00015715731,"MEAN_MOTION_DOT":4.52e-5,"MEAN_MOTION_DDOT":0},{"OBJECT_NAME":"STARLINK-35903","OBJECT_ID":"2025-303F","EPOCH":"2026-03-09T09:41:59.733312","MEAN_MOTION":15.27585974,"ECCENTRICITY":6.613e-5,"INCLINATION":43.0024,"RA_OF_ASC_NODE":312.1475,"ARG_OF_PERICENTER":283.1485,"MEAN_ANOMALY":76.9293,"EPHEMERIS_TYPE":0,"CLASSIFICATION_TYPE":"U","NORAD_CAT_ID":67168,"ELEMENT_SET_NO":999,"REV_AT_EPOCH":1269,"BSTAR":0.00090351764,"MEAN_MOTION_DOT":0.00024688,"MEAN_MOTION_DDOT":0}]
